0 YAM-3
1    11U 59001A   22053.83197560  .00000847  00000-0  45179-3 0  9996
2    11  32.8647 264.6509 1466352 126.0358 248.5175 11.85932318689790
0 YAM-4
1 00020U 59007A   22053.60170665  .00000832  00000-0  32375-3 0  9992
2 00020  33.3540 150.1993 1666456 290.4879  52.4980 11.56070084301793
0 YAM-5
1 00022U 59009A   22053.49750630  .00000970  00000-0  93426-4 0  9997
2 00022  50.2831  94.4956 0136813  90.0531 271.6094 14.96180956562418
0 YAM-6
1    29U 60002B   22053.73599453  .00000075  00000-0  41992-4 0  9997
2    29  48.3791 284.6069 0024160 344.1103  15.9048 14.74533417309456
0 YAM-7
1    45U 60007A   22053.78590077  .00000201  00000-0  76203-4 0  9992
2    45  66.6938 199.2201 0260624 228.7924 129.0448 14.33783651210919
0 YAM-8
1 25544U 98067A   08264.51782528 -.00002182  00000-0  11606-4 0  2927
2 25544  51.6416 247.4627 0006703 130.5360 325.0288 15.72125391563537
0 YAM-9
1 00047U 60007C   96198.95303667 -.00000008 +00000-0  24803-4 0  5026
2 00047 066.6626 011.9766 0252122 190.4009 169.1818 14.34618735877842
0 YAM-10
1 00048U 60008A   22054.12345678  .00000654  00000-0  38291-3 0  9998
2 00048  52.3456 198.7654 0123456 145.6789 214.3210 14.56789012345678
0 YAM-11
1 00049U 60009B   22054.23456789  .00000721  00000-0  45678-3 0  9993
2 00049  48.9012 175.4321 0134567 156.7890 203.2109 14.67890123456789
0 YAM-12
1 00050U 60010C   22054.34567890  .00000543  00000-0  32109-3 0  9994
2 00050  55.6789 162.1098 0145678 167.8901 192.1098 14.78901234567890
0 YAM-13
1 00051U 60011A   22054.45678901  .00000876  00000-0  54321-3 0  9995
2 00051  46.7890 148.7654 0156789 178.9012 181.0987 14.89012345678901
0 YAM-14
1 00052U 60012B   22054.56789012  .00000632  00000-0  41234-3 0  9996
2 00052  58.9012 135.4321 0167890 189.0123 170.9876 14.90123456789012
0 YAM-15
1 00053U 60013C   22054.67890123  .00000789  00000-0  49876-3 0  9997
2 00053  44.0123 122.0987 0178901 190.1234 159.8765 15.01234567890123
0 YAM-16
1 00054U 60014A   22054.78901234  .00000567  00000-0  36543-3 0  9998
2 00054  61.1234 108.7654 0189012 201.2345 148.7654 15.12345678901234
0 YAM-17
1 22490U 93009B   18359.76217587  .00000186  00000-0  84512-6 0  9998
2 22490  24.9694 116.1709 0043211  90.3968  62.0083 14.44539396366163
0 YAM-18
1 44722U 19074A   24027.12345678  .00001234  00000-0  56789-4 0  9991
2 44722  53.0542 123.4567 0001234  45.6789 314.1592 15.05678901234567
0 YAM-19
1 47726U 21012A   26025.12345678  .00001234  00000-0  56789-4 0  9991
2 47726  53.0542 123.4567 0001234  45.6789 314.1592 15.05678901234567